SL-14 R/B               
1 16792U 86046B   26114.13658444  .00000377  00000+0  40516-4 0  9994
2 16792  82.4843  37.2405 0024670  78.5405 281.8579 14.85632586133156
SL-14 R/B               
1 16882U 86055B   26113.99695509  .00000340  00000+0  36333-4 0  9992
2 16882  82.5184  84.0729 0018874 177.4319 249.7089 14.85680751126097
AJISAI (EGS)            
1 16908U 86061A   26114.17728424 -.00000084  00000+0  92087-4 0  9996
2 16908  50.0102 313.4763 0011425  43.6857  61.8011 12.44515926473669
SL-14 R/B               
1 17567U 87024B   26113.54750943  .00000337  00000+0  35446-4 0  9995
2 17567  82.5295  50.5975 0019742 110.3802 249.9538 14.86172937 94795
COSMOS 1833             
1 17589U 87027A   26113.59962766 -.00000227  00000+0 -95775-4 0  9996
2 17589  70.9164 231.6160 0022429 145.1564 215.1031 14.13034628 16667
SL-16 R/B               
1 17590U 87027B   26114.14862551  .00000232  00000+0  13875-3 0  9995
2 17590  71.0028 180.7015 0003547  29.9708 330.1618 14.17170219 21781
SL-14 R/B               
1 17912U 87038B   26113.63280470  .00000305  00000+0  32494-4 0  9992
2 17912  82.5001 254.4558 0019678  20.4684 339.7316 14.85408089 85907
COSMOS 1844             
1 17973U 87041A   26113.94019558 -.00000305  00000+0 -13302-3 0  9992
2 17973  70.8983 298.7313 0032771 311.5718  48.2595 14.14561471  9986
SL-14 R/B               
1 18153U 87055B   26114.00591693  .00000304  00000+0  32192-4 0  9997
2 18153  82.4968 306.3153 0019608 220.6131 139.3623 14.85667270 76665
COSMOS 1867             
1 18187U 87060A   26113.57172200 -.00000067  00000+0  12330-4 0  9999
2 18187  65.0104 181.0115 0015363 280.9125  79.0231 14.31509495 26365
SL-14 R/B               
1 18749U 88001B   26114.20644338  .00000272  00000+0  28480-4 0  9996
2 18749  82.5126 152.5595 0019662  88.3097 272.0372 14.85569186 48789
COSMOS 1933             
1 18958U 88020A   26114.13579919  .00003251  00000+0  15669-3 0  9997
2 18958  82.5151 205.9408 0005080  57.6215 302.5509 15.18377253 57123
