CCSDS_OMM_VERS = 2.0
CREATION_DATE  = 
ORIGINATOR     = 

OBJECT_NAME    = SL-14 R/B
OBJECT_ID      = 1986-046B
CENTER_NAME    = EARTH
REF_FRAME      = TEME
TIME_SYSTEM    = UTC
MEAN_ELEMENT_THEORY = SGP/SGP4

EPOCH          = 2026-04-24T03:16:40.895616
MEAN_MOTION    = 14.85632586
ECCENTRICITY   = .002467
INCLINATION    = 82.4843
RA_OF_ASC_NODE = 37.2405
ARG_OF_PERICENTER = 78.5405
MEAN_ANOMALY   = 281.8579

EPHEMERIS_TYPE = 0
CLASSIFICATION_TYPE = U
NORAD_CAT_ID   = 16792
ELEMENT_SET_NO = 999
REV_AT_EPOCH   = 13315
BSTAR          = .40516E-4
MEAN_MOTION_DOT = .377E-5
MEAN_MOTION_DDOT = 0

CCSDS_OMM_VERS = 2.0
CREATION_DATE  = 
ORIGINATOR     = 

OBJECT_NAME    = SL-14 R/B
OBJECT_ID      = 1986-055B
CENTER_NAME    = EARTH
REF_FRAME      = TEME
TIME_SYSTEM    = UTC
MEAN_ELEMENT_THEORY = SGP/SGP4

EPOCH          = 2026-04-23T23:55:36.919776
MEAN_MOTION    = 14.85680751
ECCENTRICITY   = .0018874
INCLINATION    = 82.5184
RA_OF_ASC_NODE = 84.0729
ARG_OF_PERICENTER = 177.4319
MEAN_ANOMALY   = 249.7089

EPHEMERIS_TYPE = 0
CLASSIFICATION_TYPE = U
NORAD_CAT_ID   = 16882
ELEMENT_SET_NO = 999
REV_AT_EPOCH   = 12609
BSTAR          = .36333E-4
MEAN_MOTION_DOT = .34E-5
MEAN_MOTION_DDOT = 0

CCSDS_OMM_VERS = 2.0
CREATION_DATE  = 
ORIGINATOR     = 

OBJECT_NAME    = AJISAI (EGS)
OBJECT_ID      = 1986-061A
CENTER_NAME    = EARTH
REF_FRAME      = TEME
TIME_SYSTEM    = UTC
MEAN_ELEMENT_THEORY = SGP/SGP4

EPOCH          = 2026-04-24T04:15:17.358336
MEAN_MOTION    = 12.44515926
ECCENTRICITY   = .0011425
INCLINATION    = 50.0102
RA_OF_ASC_NODE = 313.4763
ARG_OF_PERICENTER = 43.6857
MEAN_ANOMALY   = 61.8011

EPHEMERIS_TYPE = 0
CLASSIFICATION_TYPE = U
NORAD_CAT_ID   = 16908
ELEMENT_SET_NO = 999
REV_AT_EPOCH   = 47366
BSTAR          = .92087E-4
MEAN_MOTION_DOT = -.84E-6
MEAN_MOTION_DDOT = 0

CCSDS_OMM_VERS = 2.0
CREATION_DATE  = 
ORIGINATOR     = 

OBJECT_NAME    = SL-14 R/B
OBJECT_ID      = 1987-024B
CENTER_NAME    = EARTH
REF_FRAME      = TEME
TIME_SYSTEM    = UTC
MEAN_ELEMENT_THEORY = SGP/SGP4

EPOCH          = 2026-04-23T13:08:24.814752
MEAN_MOTION    = 14.86172937
ECCENTRICITY   = .00197426
INCLINATION    = 82.5295
RA_OF_ASC_NODE = 50.5975
ARG_OF_PERICENTER = 110.3802
MEAN_ANOMALY   = 249.9538

EPHEMERIS_TYPE = 0
CLASSIFICATION_TYPE = U
NORAD_CAT_ID   = 17567
ELEMENT_SET_NO = 999
REV_AT_EPOCH   = 9479
BSTAR          = .35445758E-4
MEAN_MOTION_DOT = .337E-5
MEAN_MOTION_DDOT = 0

CCSDS_OMM_VERS = 2.0
CREATION_DATE  = 
ORIGINATOR     = 

OBJECT_NAME    = COSMOS 1833
OBJECT_ID      = 1987-027A
CENTER_NAME    = EARTH
REF_FRAME      = TEME
TIME_SYSTEM    = UTC
MEAN_ELEMENT_THEORY = SGP/SGP4

EPOCH          = 2026-04-23T14:23:27.829824
MEAN_MOTION    = 14.13034628
ECCENTRICITY   = .00224295
INCLINATION    = 70.9164
RA_OF_ASC_NODE = 231.6160
ARG_OF_PERICENTER = 145.1564
MEAN_ANOMALY   = 215.1031

EPHEMERIS_TYPE = 0
CLASSIFICATION_TYPE = U
NORAD_CAT_ID   = 17589
ELEMENT_SET_NO = 999
REV_AT_EPOCH   = 1666
BSTAR          = -.95775449E-4
MEAN_MOTION_DOT = -.227E-5
MEAN_MOTION_DDOT = 0

CCSDS_OMM_VERS = 2.0
CREATION_DATE  = 
ORIGINATOR     = 

OBJECT_NAME    = SL-16 R/B
OBJECT_ID      = 1987-027B
CENTER_NAME    = EARTH
REF_FRAME      = TEME
TIME_SYSTEM    = UTC
MEAN_ELEMENT_THEORY = SGP/SGP4

EPOCH          = 2026-04-24T03:34:01.244064
MEAN_MOTION    = 14.17170219
ECCENTRICITY   = .0003547
INCLINATION    = 71.0028
RA_OF_ASC_NODE = 180.7015
ARG_OF_PERICENTER = 29.9708
MEAN_ANOMALY   = 330.1618

EPHEMERIS_TYPE = 0
CLASSIFICATION_TYPE = U
NORAD_CAT_ID   = 17590
ELEMENT_SET_NO = 999
REV_AT_EPOCH   = 2178
BSTAR          = .13875E-3
MEAN_MOTION_DOT = .232E-5
MEAN_MOTION_DDOT = 0

CCSDS_OMM_VERS = 2.0
CREATION_DATE  = 
ORIGINATOR     = 

OBJECT_NAME    = SL-14 R/B
OBJECT_ID      = 1987-038B
CENTER_NAME    = EARTH
REF_FRAME      = TEME
TIME_SYSTEM    = UTC
MEAN_ELEMENT_THEORY = SGP/SGP4

EPOCH          = 2026-04-23T15:11:14.326080
MEAN_MOTION    = 14.85408089
ECCENTRICITY   = .00196784
INCLINATION    = 82.5001
RA_OF_ASC_NODE = 254.4558
ARG_OF_PERICENTER = 20.4684
MEAN_ANOMALY   = 339.7316

EPHEMERIS_TYPE = 0
CLASSIFICATION_TYPE = U
NORAD_CAT_ID   = 17912
ELEMENT_SET_NO = 999
REV_AT_EPOCH   = 8590
BSTAR          = .32494332E-4
MEAN_MOTION_DOT = .305E-5
MEAN_MOTION_DDOT = 0

CCSDS_OMM_VERS = 2.0
CREATION_DATE  = 
ORIGINATOR     = 

OBJECT_NAME    = COSMOS 1844
OBJECT_ID      = 1987-041A
CENTER_NAME    = EARTH
REF_FRAME      = TEME
TIME_SYSTEM    = UTC
MEAN_ELEMENT_THEORY = SGP/SGP4

EPOCH          = 2026-04-23T22:33:52.898112
MEAN_MOTION    = 14.14561471
ECCENTRICITY   = .0032771
INCLINATION    = 70.8983
RA_OF_ASC_NODE = 298.7313
ARG_OF_PERICENTER = 311.5718
MEAN_ANOMALY   = 48.2595

EPHEMERIS_TYPE = 0
CLASSIFICATION_TYPE = U
NORAD_CAT_ID   = 17973
ELEMENT_SET_NO = 999
REV_AT_EPOCH   = 998
BSTAR          = -.13302E-3
MEAN_MOTION_DOT = -.305E-5
MEAN_MOTION_DDOT = 0

CCSDS_OMM_VERS = 2.0
CREATION_DATE  = 
ORIGINATOR     = 

OBJECT_NAME    = SL-14 R/B
OBJECT_ID      = 1987-055B
CENTER_NAME    = EARTH
REF_FRAME      = TEME
TIME_SYSTEM    = UTC
MEAN_ELEMENT_THEORY = SGP/SGP4

EPOCH          = 2026-04-24T00:08:31.222752
MEAN_MOTION    = 14.85667270
ECCENTRICITY   = .0019608
INCLINATION    = 82.4968
RA_OF_ASC_NODE = 306.3153
ARG_OF_PERICENTER = 220.6131
MEAN_ANOMALY   = 139.3623

EPHEMERIS_TYPE = 0
CLASSIFICATION_TYPE = U
NORAD_CAT_ID   = 18153
ELEMENT_SET_NO = 999
REV_AT_EPOCH   = 7666
BSTAR          = .32192E-4
MEAN_MOTION_DOT = .304E-5
MEAN_MOTION_DDOT = 0

CCSDS_OMM_VERS = 2.0
CREATION_DATE  = 
ORIGINATOR     = 

OBJECT_NAME    = COSMOS 1867
OBJECT_ID      = 1987-060A
CENTER_NAME    = EARTH
REF_FRAME      = TEME
TIME_SYSTEM    = UTC
MEAN_ELEMENT_THEORY = SGP/SGP4

EPOCH          = 2026-04-23T13:43:16.780800
MEAN_MOTION    = 14.31509495
ECCENTRICITY   = .00153632
INCLINATION    = 65.0104
RA_OF_ASC_NODE = 181.0115
ARG_OF_PERICENTER = 280.9125
MEAN_ANOMALY   = 79.0231

EPHEMERIS_TYPE = 0
CLASSIFICATION_TYPE = U
NORAD_CAT_ID   = 18187
ELEMENT_SET_NO = 999
REV_AT_EPOCH   = 2636
BSTAR          = .12329681E-4
MEAN_MOTION_DOT = -.67E-6
MEAN_MOTION_DDOT = 0

CCSDS_OMM_VERS = 2.0
CREATION_DATE  = 
ORIGINATOR     = 

OBJECT_NAME    = SL-14 R/B
OBJECT_ID      = 1988-001B
CENTER_NAME    = EARTH
REF_FRAME      = TEME
TIME_SYSTEM    = UTC
MEAN_ELEMENT_THEORY = SGP/SGP4

EPOCH          = 2026-04-24T04:57:16.708032
MEAN_MOTION    = 14.85569186
ECCENTRICITY   = .0019662
INCLINATION    = 82.5126
RA_OF_ASC_NODE = 152.5595
ARG_OF_PERICENTER = 88.3097
MEAN_ANOMALY   = 272.0372

EPHEMERIS_TYPE = 0
CLASSIFICATION_TYPE = U
NORAD_CAT_ID   = 18749
ELEMENT_SET_NO = 999
REV_AT_EPOCH   = 4878
BSTAR          = .2848E-4
MEAN_MOTION_DOT = .272E-5
MEAN_MOTION_DDOT = 0

CCSDS_OMM_VERS = 2.0
CREATION_DATE  = 
ORIGINATOR     = 

OBJECT_NAME    = COSMOS 1933
OBJECT_ID      = 1988-020A
CENTER_NAME    = EARTH
REF_FRAME      = TEME
TIME_SYSTEM    = UTC
MEAN_ELEMENT_THEORY = SGP/SGP4

EPOCH          = 2026-04-24T03:15:33.050016
MEAN_MOTION    = 15.18377253
ECCENTRICITY   = .000508
INCLINATION    = 82.5151
RA_OF_ASC_NODE = 205.9408
ARG_OF_PERICENTER = 57.6215
MEAN_ANOMALY   = 302.5509

EPHEMERIS_TYPE = 0
CLASSIFICATION_TYPE = U
NORAD_CAT_ID   = 18958
ELEMENT_SET_NO = 999
REV_AT_EPOCH   = 5712
BSTAR          = .15669E-3
MEAN_MOTION_DOT = .3251E-4
MEAN_MOTION_DDOT = 0

